*******************************************************************************
 Revised: July 31, 2013             Moon / (Earth)                          301
 
 GEOPHYSICAL DATA (updated 2018-Aug-15):
  Vol. mean radius, km  = 1737.53+-0.03    Mass, x10^22 kg       =    7.349
  Radius (gravity), km  = 1738.0           Surface emissivity    =    0.92
  Radius (IAU), km      = 1737.4           GM, km^3/s^2          = 4902.800066
  Density, g/cm^3       =    3.3437        GM 1-sigma, km^3/s^2  =  +-0.0001  
  V(1,0)                =   +0.21          Surface accel., m/s^2 =    1.62
  Earth/Moon mass ratio = 81.3005690769    Farside crust. thick. = ~80 - 90 km
  Mean crustal density  = 2.97+-.07 g/cm^3 Nearside crust. thick.= 58+-8 km 
  Heat flow, Apollo 15  = 3.1+-.6 mW/m^2   Mean angular diameter = 31'05.2"
  Heat flow, Apollo 17  = 2.2+-.5 mW/m^2   Sid. rot. rate, rad/s = 0.0000026617
  Geometric Albedo      = 0.12             Mean solar day        = 29.5306 d
  Obliquity to orbit    = 6.67 deg         Orbit period          = 27.321582 d
  Semi-major axis, a    = 384400 km        Eccentricity          = 0.05490
  Mean motion, rad/s    = 2.6616995x10^-6  Inclination           = 5.145 deg
  Apsidal period        = 3231.50 d        Nodal period          = 6798.38 d
                                 Perihelion  Aphelion    Mean
  Solar Constant (W/m^2)         1414+-7     1323+-7     1368+-7
  Maximum Planetary IR (W/m^2)   1314        1226        1268
  Minimum Planetary IR (W/m^2)      5.2         5.2         5.2
 *******************************************************************************
 

 

*******************************************************************************
Ephemeris / WWW_USER Sat Mar  9 19:44:29 2019 Pasadena, USA      / Horizons    
*******************************************************************************
Target body name: Moon (301)                      {source: DE431mx}
Center body name: Solar System Barycenter (0)     {source: DE431mx}
Center-site name: BODY CENTER
*******************************************************************************
Start time      : A.D. 1970-Jan-01 00:00:00.0000 TDB
Stop  time      : A.D. 2100-Jan-01 00:00:00.0000 TDB
Step-size       : 1 calendar years
*******************************************************************************
Center geodetic : 0.00000000,0.00000000,0.0000000 {E-lon(deg),Lat(deg),Alt(km)}
Center cylindric: 0.00000000,0.00000000,0.0000000 {E-lon(deg),Dxy(km),Dz(km)}
Center radii    : (undefined)                                                  
Output units    : KM-S                                                         
Output type     : GEOMETRIC cartesian states
Output format   : 2 (position and velocity)
Reference frame : ICRF/J2000.0                                                 
Coordinate systm: Earth Mean Equator and Equinox of Reference Epoch            
*******************************************************************************
            JDTDB,            Calendar Date (TDB),                      X,                      Y,                      Z,                     VX,                     VY,                     VZ,
**************************************************************************************************************************************************************************************************
$$SOE
2440587.500000000, A.D. 1970-Jan-01 00:00:00.0000, -2.674751557311480E+07,  1.328574964795551E+08,  5.758434195342191E+07, -2.951864258933297E+01, -5.952260906709061E+00, -2.663592387625777E+00,
2440952.500000000, A.D. 1971-Jan-01 00:00:00.0000, -2.557330683221574E+07,  1.330743963714156E+08,  5.769942493917641E+07, -2.923371104821966E+01, -4.212706045180666E+00, -1.722942104510417E+00,
2441317.500000000, A.D. 1972-Jan-01 00:00:00.0000, -2.556810374545066E+07,  1.337876430027088E+08,  5.802695728820119E+07, -3.085077940340577E+01, -4.993696040803465E+00, -2.258039428999983E+00,
2441683.500000000, A.D. 1973-Jan-01 00:00:00.0000, -2.790982598486769E+07,  1.327659878666627E+08,  5.754634803364040E+07, -2.892266295316217E+01, -5.686441770215623E+00, -2.399439339029561E+00,
2442048.500000000, A.D. 1974-Jan-01 00:00:00.0000, -2.689486298164205E+07,  1.329729133154529E+08,  5.770904035307311E+07, -2.986307950088709E+01, -4.207746204655222E+00, -1.835430733145188E+00,
2442413.500000000, A.D. 1975-Jan-01 00:00:00.0000, -2.695244097098867E+07,  1.329958181989071E+08,  5.764786226291911E+07, -3.049842954473590E+01, -5.718210294568266E+00, -2.518693684295649E+00,
2442778.500000000, A.D. 1976-Jan-01 00:00:00.0000, -2.586718618687623E+07,  1.322002618447210E+08,  5.735536874877418E+07, -2.878691463388328E+01, -4.892313151656646E+00, -2.044152620069956E+00,
2443144.500000000, A.D. 1977-Jan-01 00:00:00.0000, -2.720689096869328E+07,  1.323027933399579E+08,  5.735351271777382E+07, -3.047856063623351E+01, -4.639160038909666E+00, -2.098972292535911E+00,
2443509.500000000, A.D. 1978-Jan-01 00:00:00.0000, -2.675752215617099E+07,  1.321545914131261E+08,  5.727744682716995E+07, -2.983392444561609E+01, -6.029874642707591E+00, -2.523481370245747E+00,
2443874.500000000, A.D. 1979-Jan-01 00:00:00.0000, -2.507453955359492E+07,  1.321340057969004E+08,  5.728856655183863E+07, -2.895701629267236E+01, -4.304532990790659E+00, -1.945623295284133E+00,
2444239.500000000, A.D. 1980-Jan-01 00:00:00.0000, -2.432005422453865E+07,  1.331866233115919E+08,  5.767885283555818E+07, -3.081582147300151E+01, -4.704983637592987E+00, -2.006223124547800E+00,
2444605.500000000, A.D. 1981-Jan-01 00:00:00.0000, -2.649614003940956E+07,  1.326732952271273E+08,  5.752361991699345E+07, -2.911915445023078E+01, -5.852104175176587E+00, -2.537068191666820E+00,
2444970.500000000, A.D. 1982-Jan-01 00:00:00.0000, -2.527574322240883E+07,  1.333659193689025E+08,  5.775387243541137E+07, -2.955059468624631E+01, -4.156795763442906E+00, -1.861823255052211E+00,
2445335.500000000, A.D. 1983-Jan-01 00:00:00.0000, -2.545927606486778E+07,  1.341648688354146E+08,  5.815093060258111E+07, -3.074149617791284E+01, -5.493477742732574E+00, -2.283787131747777E+00,
2445700.500000000, A.D. 1984-Jan-01 00:00:00.0000, -2.513885438150050E+07,  1.338350671358753E+08,  5.800131943344156E+07, -2.889210657901492E+01, -5.078749295383570E+00, -2.301148189282423E+00,
2446066.500000000, A.D. 1985-Jan-01 00:00:00.0000, -2.705062204282200E+07,  1.340287149634285E+08,  5.807758958471464E+07, -3.026082636353315E+01, -4.474964910351945E+00, -1.855133177356747E+00,
2446431.500000000, A.D. 1986-Jan-01 00:00:00.0000, -2.745890772930225E+07,  1.338935129588837E+08,  5.807917972488233E+07, -3.017423088145785E+01, -5.914134340477024E+00, -2.613437430555932E+00,
2446796.500000000, A.D. 1987-Jan-01 00:00:00.0000, -2.652526441371207E+07,  1.332595732249981E+08,  5.774567724390584E+07, -2.879303685517554E+01, -4.597718939320018E+00, -1.985606599359270E+00,
2447161.500000000, A.D. 1988-Jan-01 00:00:00.0000, -2.583140451775474E+07,  1.336185242372463E+08,  5.797161617603765E+07, -3.070321693296619E+01, -4.437861314058055E+00, -1.886296572139150E+00,
2447527.500000000, A.D. 1989-Jan-01 00:00:00.0000, -2.809731050265636E+07,  1.326214318737967E+08,  5.747630748542576E+07, -2.940103958064378E+01, -5.980125788881557E+00, -2.659929021049128E+00,
2447892.500000000, A.D. 1990-Jan-01 00:00:00.0000, -2.645393785439650E+07,  1.325659886685778E+08,  5.747974884434428E+07, -2.924319807065783E+01, -4.295258177068058E+00, -1.764080910482007E+00,
2448257.500000000, A.D. 1991-Jan-01 00:00:00.0000, -2.591337985291877E+07,  1.332672722439668E+08,  5.778118224428929E+07, -3.085341565116063E+01, -5.097886539693850E+00, -2.314795829257555E+00,
2448622.500000000, A.D. 1992-Jan-01 00:00:00.0000, -2.523239588344000E+07,  1.329853271560010E+08,  5.761882991499029E+07, -2.903812788759152E+01, -5.358323808592599E+00, -2.254979033875869E+00,
2448988.500000000, A.D. 1993-Jan-01 00:00:00.0000, -2.653726838719917E+07,  1.332718061668398E+08,  5.780848659898190E+07, -2.994071571382174E+01, -4.281974231668586E+00, -1.888478269793750E+00,
2449353.500000000, A.D. 1994-Jan-01 00:00:00.0000, -2.672058672503642E+07,  1.338353096916447E+08,  5.798362913139399E+07, -3.045470887416902E+01, -5.757266999196164E+00, -2.518120451264883E+00,
2449718.500000000, A.D. 1995-Jan-01 00:00:00.0000, -2.607271091269675E+07,  1.335208150593268E+08,  5.791736226984291E+07, -2.874509108246004E+01, -4.894852628844511E+00, -2.054279691597794E+00,
2450083.500000000, A.D. 1996-Jan-01 00:00:00.0000, -2.555359228725657E+07,  1.342296342094560E+08,  5.819401317333910E+07, -3.052428868572092E+01, -4.139624993291791E+00, -1.881253288054157E+00,
2450449.500000000, A.D. 1997-Jan-01 00:00:00.0000, -2.852023760833512E+07,  1.334638153452809E+08,  5.788566975398377E+07, -2.975648797655537E+01, -6.077902784106330E+00, -2.542497666224673E+00,
2450814.500000000, A.D. 1998-Jan-01 00:00:00.0000, -2.748450875057056E+07,  1.329562071821607E+08,  5.769580670599297E+07, -2.900235453349110E+01, -4.384386213109622E+00, -1.987154672350922E+00,
2451179.500000000, A.D. 1999-Jan-01 00:00:00.0000, -2.708257095633360E+07,  1.332296160877401E+08,  5.776885861746460E+07, -3.086617147660668E+01, -4.834924848121686E+00, -2.042638045906267E+00,
2451544.500000000, A.D. 2000-Jan-01 00:00:00.0000, -2.659657952880802E+07,  1.323370637709372E+08,  5.744792954065500E+07, -2.926974096953943E+01, -5.522914675494645E+00, -2.396373919913855E+00,
2451910.500000000, A.D. 2001-Jan-01 00:00:00.0000, -2.743428966158671E+07,  1.319040159556349E+08,  5.717667149070712E+07, -2.960171723812486E+01, -4.259234913891723E+00, -1.887078864923640E+00,
2452275.500000000, A.D. 2002-Jan-01 00:00:00.0000, -2.688595292814625E+07,  1.322666745247973E+08,  5.737733494255891E+07, -3.066758286927556E+01, -5.570692351412074E+00, -2.328584425521934E+00,
